RSP-03                  
1 65732U 98067XL  26034.53636242  .00558295  13872-3  14023-2 0  9999
2 65732  51.6167 223.4903 0005522 250.4003 109.6408 15.95057000 21500
YOTSUBA-KULOVER         
1 65941U 98067XN  26033.98479468  .00107724  00000+0  89351-3 0  9993
2 65941  51.6239 235.6577 0004246 213.0597 147.0135 15.69363652 18030
BOTAN                   
1 65942U 98067XP  26034.53684974  .00297373  00000+0  14400-2 0  9998
2 65942  51.6184 229.5572 0005488 236.9526 123.0949 15.81104541 18167
E-KAGAKU-1              
1 65943U 98067XQ  26034.55835713  .00116123  00000+0  95941-3 0  9993
2 65943  51.6257 232.7479 0003194 229.2556 130.8164 15.69429028 18128
HRC MONOBLOCK CAMERA    
1 66052U 98067XR  26034.56460488  .00046740  00000+0  59929-3 0  9992
2 66052  51.6280 237.2888 0000408   5.0318 355.0678 15.58676411 17062
HTV-X1                  
1 66174U 25241A   26034.56592394  .00010230  00000+0  19757-3 0  9993
2 66174  51.6309 241.0439 0011068  60.8200 299.3894 15.48366668   518
SZ-21 MODULE            
1 66515U 25246C   26034.40768354  .00034121  00000+0  32677-3 0  9992
2 66515  41.4756  53.9721 0003243 270.9806  89.0663 15.65950990 12692
SHENZHOU-22             
1 66645U 25272A   26034.52706412  .00018163  00000+0  22908-3 0  9999
2 66645  41.4674  55.7893 0006164 350.4992   9.5728 15.59144861267641
SOYUZ-MS 28             
1 66664U 25275A   26034.56592394  .00010230  00000+0  19757-3 0  9994
2 66664  51.6309 241.0439 0011068  60.8200 299.3894 15.48366668  1287
DUPLEX                  
1 66906U 98067XS  26034.26801796  .00028914  00000+0  44815-3 0  9999
2 66906  51.6285 241.3080 0001543  83.3243 276.7922 15.53773658  9778
1998-067XT              
1 66907U 98067XT  26034.28048362  .00094027  00000+0  11172-2 0  9991
2 66907  51.6261 239.8896 0002533 176.7926 183.3084 15.60380820  9792
1998-067XU              
1 66908U 98067XU  26032.99906644  .00082493  00000+0  99129-3 0  9997
2 66908  51.6258 246.3309 0002588 170.0910 190.0135 15.60143030  9591
